ONEWEB-0153             
1 48044U 21025C   24084.82740105 -.00000217  00000+0 -62802-3 0  9997
2 48044  87.8919 122.3372 0001965  99.1333 261.0018 13.13470572146645
ONEWEB-0154             
1 48045U 21025D   24084.82422767 -.00000190  00000+0 -55647-3 0  9998
2 48045  87.8916 122.3519 0001910  96.3346 263.8001 13.13470686146603
ONEWEB-0116             
1 48046U 21025E   24084.86549880  .00000390  00000+0  10339-2 0  9997
2 48046  87.8920 122.3104 0001938  89.2621 270.8730 13.13469198146755
ONEWEB-0150             
1 48047U 21025F   24084.61156774  .00000089  00000+0  20817-3 0  9995
2 48047  87.8914 122.3848 0002074  99.1477 260.9886 13.13470576146614
ONEWEB-0107             
1 48048U 21025G   24084.84169308  .00000132  00000+0  32520-3 0  9991
2 48048  87.8915 122.3366 0002192 104.2540 255.8833 13.13470221146624
ONEWEB-0101             
1 48049U 21025H   24084.80518835  .00000053  00000+0  10971-3 0  9999
2 48049  87.8922 122.3557 0001870  98.4827 261.6514 13.13469073146599
ONEWEB-0113             
1 48050U 21025J   24084.85915118  .00000360  00000+0  95022-3 0  9992
2 48050  87.8918 122.3272 0001932  90.3235 269.8116 13.13468816146685
ONEWEB-0112             
1 48051U 21025K   24084.84645237  .00000167  00000+0  42119-3 0  9998
2 48051  87.8912 122.3339 0002088  95.3852 264.7515 13.13470099146691
